{"type":"FeatureCollection","features":[
{"type":"Feature","properties":{"name":"Zimbabwe","iso":"ZW","min_zoom":2.5,"max_zoom":8},"geometry":{"type":"Point","coordinates":[29.9254,-18.9116]}},
{"type":"Feature","properties":{"name":"Zambia","iso":"ZM","min_zoom":3,"max_zoom":8},"geometry":{"type":"Point","coordinates":[26.3953,-14.6608]}},
{"type":"Feature","properties":{"name":"Yemen","iso":"YE","min_zoom":3,"max_zoom":8},"geometry":{"type":"Point","coordinates":[45.8744,15.3282]}},
{"type":"Feature","properties":{"name":"Vietnam","iso":"VN","min_zoom":2,"max_zoom":7},"geometry":{"type":"Point","coordinates":[105.3873,21.7154]}},
{"type":"Feature","properties":{"name":"Venezuela","iso":"VE","min_zoom":2.5,"max_zoom":7.5},"geometry":{"type":"Point","coordinates":[-64.5994,7.1825]}},
{"type":"Feature","properties":{"name":"Vatican","iso":"VA","min_zoom":5,"max_zoom":10},"geometry":{"type":"Point","coordinates":[12.4534,41.9033]}},
{"type":"Feature","properties":{"name":"Vanuatu","iso":"VU","min_zoom":4,"max_zoom":9},"geometry":{"type":"Point","coordinates":[166.9088,-15.3715]}},
{"type":"Feature","properties":{"name":"Uzbekistan","iso":"UZ","min_zoom":3,"max_zoom":8},"geometry":{"type":"Point","coordinates":[64.0054,41.6936]}},
{"type":"Feature","properties":{"name":"Uruguay","iso":"UY","min_zoom":3,"max_zoom":8},"geometry":{"type":"Point","coordinates":[-55.9669,-32.9611]}},
{"type":"Feature","properties":{"name":"Micronesia","iso":"FM","min_zoom":5,"max_zoom":10},"geometry":{"type":"Point","coordinates":[158.234,6.8876]}},
{"type":"Feature","properties":{"name":"Marshall Is.","iso":"MH","min_zoom":5,"max_zoom":10},"geometry":{"type":"Point","coordinates":[171.1936,7.0826]}},
{"type":"Feature","properties":{"name":"N. Mariana Is.","iso":"MP","min_zoom":5,"max_zoom":10},"geometry":{"type":"Point","coordinates":[145.7344,15.1882]}},
{"type":"Feature","properties":{"name":"U.S. Virgin Is.","iso":"VI","min_zoom":5,"max_zoom":10},"geometry":{"type":"Point","coordinates":[-64.7792,17.7467]}},
{"type":"Feature","properties":{"name":"Guam","iso":"GU","min_zoom":3,"max_zoom":10},"geometry":{"type":"Point","coordinates":[144.7036,13.3542]}},
{"type":"Feature","properties":{"name":"American Samoa","iso":"AS","min_zoom":4,"max_zoom":9},"geometry":{"type":"Point","coordinates":[-170.7472,-14.3267]}},
{"type":"Feature","properties":{"name":"Puerto Rico","iso":"PR","min_zoom":3,"max_zoom":8},"geometry":{"type":"Point","coordinates":[-66.4811,18.2347]}},
{"type":"Feature","properties":{"name":"United States of America","iso":"US","min_zoom":1.7,"max_zoom":5.7},"geometry":{"type":"Point","coordinates":[-97.4826,39.5385]}},
{"type":"Feature","properties":{"name":"S. Geo. and the Is.","iso":"GS","min_zoom":5,"max_zoom":9},"geometry":{"type":"Point","coordinates":[-31.0632,-55.6834]}},
{"type":"Feature","properties":{"name":"Br. Indian Ocean Ter.","iso":"IO","min_zoom":5,"max_zoom":9.5},"geometry":{"type":"Point","coordinates":[71.3483,-6.1908]}},
{"type":"Feature","properties":{"name":"Saint Helena","iso":"SH","min_zoom":5,"max_zoom":10},"geometry":{"type":"Point","coordinates":[-5.7126,-15.9505]}},
{"type":"Feature","properties":{"name":"Pitcairn Is.","iso":"PN","min_zoom":5,"max_zoom":9},"geometry":{"type":"Point","coordinates":[-128.3175,-24.3646]}},
{"type":"Feature","properties":{"name":"Anguilla","iso":"AI","min_zoom":5,"max_zoom":10},"geometry":{"type":"Point","coordinates":[-63.0264,18.243]}},
{"type":"Feature","properties":{"name":"Falkland Is.","iso":"FK","min_zoom":4.5,"max_zoom":9},"geometry":{"type":"Point","coordinates":[-58.7386,-51.6089]}},
{"type":"Feature","properties":{"name":"Cayman Is.","iso":"KY","min_zoom":5,"max_zoom":9.5},"geometry":{"type":"Point","coordinates":[-81.2405,19.3199]}},
{"type":"Feature","properties":{"name":"Bermuda","iso":"BM","min_zoom":4,"max_zoom":9},"geometry":{"type":"Point","coordinates":[-64.7636,32.2966]}},
{"type":"Feature","properties":{"name":"British Virgin Is.","iso":"VG","min_zoom":5,"max_zoom":9.5},"geometry":{"type":"Point","coordinates":[-64.6366,18.4266]}},
{"type":"Feature","properties":{"name":"Turks and Caicos Is.","iso":"TC","min_zoom":5,"max_zoom":10},"geometry":{"type":"Point","coordinates":[-71.7527,21.8166]}},
{"type":"Feature","properties":{"name":"Montserrat","iso":"MS","min_zoom":5,"max_zoom":10},"geometry":{"type":"Point","coordinates":[-62.1883,16.7372]}},
{"type":"Feature","properties":{"name":"Jersey","iso":"JE","min_zoom":5,"max_zoom":10},"geometry":{"type":"Point","coordinates":[-2.0901,49.2208]}},
{"type":"Feature","properties":{"name":"Guernsey","iso":"GG","min_zoom":5,"max_zoom":10},"geometry":{"type":"Point","coordinates":[-2.5617,49.4635]}},
{"type":"Feature","properties":{"name":"Isle of Man","iso":"IM","min_zoom":5,"max_zoom":10},"geometry":{"type":"Point","coordinates":[-4.5301,54.2208]}},
{"type":"Feature","properties":{"name":"United Kingdom","iso":"GB","min_zoom":1.7,"max_zoom":6.7},"geometry":{"type":"Point","coordinates":[-2.1163,54.4027]}},
{"type":"Feature","properties":{"name":"United Arab Emirates","iso":"AE","min_zoom":4,"max_zoom":9},"geometry":{"type":"Point","coordinates":[54.5473,23.4663]}},
{"type":"Feature","properties":{"name":"Ukraine","iso":"UA","min_zoom":2.7,"max_zoom":7},"geometry":{"type":"Point","coordinates":[32.1409,49.7247]}},
{"type":"Feature","properties":{"name":"Uganda","iso":"UG","min_zoom":3,"max_zoom":8},"geometry":{"type":"Point","coordinates":[32.9486,1.9726]}},
{"type":"Feature","properties":{"name":"Turkmenistan","iso":"TM","min_zoom":3,"max_zoom":8},"geometry":{"type":"Point","coordinates":[58.6766,39.8552]}},
{"type":"Feature","properties":{"name":"Turkey","iso":"TR","min_zoom":2,"max_zoom":7},"geometry":{"type":"Point","coordinates":[34.5083,39.3454]}},
{"type":"Feature","properties":{"name":"Tunisia","iso":"TN","min_zoom":3,"max_zoom":8},"geometry":{"type":"Point","coordinates":[9.0079,33.6873]}},
{"type":"Feature","properties":{"name":"Trinidad and Tobago","iso":"TT","min_zoom":4.5,"max_zoom":9.5},"geometry":{"type":"Point","coordinates":[-60.9184,10.9989]}},
{"type":"Feature","properties":{"name":"Tonga","iso":"TO","min_zoom":4,"max_zoom":9},"geometry":{"type":"Point","coordinates":[-175.163,-21.21]}},
{"type":"Feature","properties":{"name":"Togo","iso":"TG","min_zoom":5,"max_zoom":10},"geometry":{"type":"Point","coordinates":[1.0581,8.8072]}},
{"type":"Feature","properties":{"name":"Timor-Leste","iso":"TL","min_zoom":4,"max_zoom":9},"geometry":{"type":"Point","coordinates":[125.8547,-8.8037]}},
{"type":"Feature","properties":{"name":"Thailand","iso":"TH","min_zoom":2.7,"max_zoom":8},"geometry":{"type":"Point","coordinates":[101.0732,15.4597]}},
{"type":"Feature","properties":{"name":"Tanzania","iso":"TZ","min_zoom":3,"max_zoom":8},"geometry":{"type":"Point","coordinates":[34.9592,-6.0519]}},
{"type":"Feature","properties":{"name":"Tajikistan","iso":"TJ","min_zoom":4,"max_zoom":9},"geometry":{"type":"Point","coordinates":[72.5873,38.1998]}},
{"type":"Feature","properties":{"name":"Taiwan","iso":"CN-TW","min_zoom":4.5,"max_zoom":8},"geometry":{"type":"Point","coordinates":[120.8682,23.6524]}},
{"type":"Feature","properties":{"name":"Syria","iso":"SY","min_zoom":3,"max_zoom":8},"geometry":{"type":"Point","coordinates":[38.2778,35.0066]}},
{"type":"Feature","properties":{"name":"Switzerland","iso":"CH","min_zoom":4,"max_zoom":9},"geometry":{"type":"Point","coordinates":[7.464,46.7191]}},
{"type":"Feature","properties":{"name":"Sweden","iso":"SE","min_zoom":2,"max_zoom":7},"geometry":{"type":"Point","coordinates":[19.0171,65.8592]}},
{"type":"Feature","properties":{"name":"eSwatini","iso":"SZ","min_zoom":4,"max_zoom":9},"geometry":{"type":"Point","coordinates":[31.4673,-26.5337]}},
{"type":"Feature","properties":{"name":"Suriname","iso":"SR","min_zoom":4,"max_zoom":9},"geometry":{"type":"Point","coordinates":[-55.9109,4.144]}},
{"type":"Feature","properties":{"name":"S. Sudan","iso":"SS","min_zoom":3,"max_zoom":8},"geometry":{"type":"Point","coordinates":[30.3902,7.2305]}},
{"type":"Feature","properties":{"name":"Sudan","iso":"SD","min_zoom":2.5,"max_zoom":8},"geometry":{"type":"Point","coordinates":[29.2607,16.3307]}},
{"type":"Feature","properties":{"name":"Sri Lanka","iso":"LK","min_zoom":3,"max_zoom":8},"geometry":{"type":"Point","coordinates":[80.7048,7.5811]}},
{"type":"Feature","properties":{"name":"Spain","iso":"ES","min_zoom":2,"max_zoom":7},"geometry":{"type":"Point","coordinates":[-3.4647,40.091]}},
{"type":"Feature","properties":{"name":"South Korea","iso":"KR","min_zoom":2.5,"max_zoom":7},"geometry":{"type":"Point","coordinates":[128.1295,36.3849]}},
{"type":"Feature","properties":{"name":"South Africa","iso":"ZA","min_zoom":1.7,"max_zoom":6.7},"geometry":{"type":"Point","coordinates":[23.6657,-29.7088]}},
{"type":"Feature","properties":{"name":"Somalia","iso":"SO","min_zoom":4,"max_zoom":9},"geometry":{"type":"Point","coordinates":[45.1924,3.5689]}},
{"type":"Feature","properties":{"name":"Somaliland","iso":null,"min_zoom":4.5,"max_zoom":9},"geometry":{"type":"Point","coordinates":[46.7316,9.4439]}},
{"type":"Feature","properties":{"name":"Solomon Is.","iso":"SB","min_zoom":3,"max_zoom":8},"geometry":{"type":"Point","coordinates":[159.1705,-8.0295]}},
{"type":"Feature","properties":{"name":"Slovakia","iso":"SK","min_zoom":4,"max_zoom":9},"geometry":{"type":"Point","coordinates":[19.0499,48.734]}},
{"type":"Feature","properties":{"name":"Slovenia","iso":"SI","min_zoom":5,"max_zoom":10},"geometry":{"type":"Point","coordinates":[14.9153,46.0608]}},
{"type":"Feature","properties":{"name":"Singapore","iso":"SG","min_zoom":4,"max_zoom":9},"geometry":{"type":"Point","coordinates":[103.8169,1.3666]}},
{"type":"Feature","properties":{"name":"Sierra Leone","iso":"SL","min_zoom":4,"max_zoom":9},"geometry":{"type":"Point","coordinates":[-11.7637,8.6174]}},
{"type":"Feature","properties":{"name":"Seychelles","iso":"SC","min_zoom":5,"max_zoom":10},"geometry":{"type":"Point","coordinates":[55.4802,-4.6767]}},
{"type":"Feature","properties":{"name":"Serbia","iso":"RS","min_zoom":4,"max_zoom":7},"geometry":{"type":"Point","coordinates":[20.788,44.1899]}},
{"type":"Feature","properties":{"name":"Senegal","iso":"SN","min_zoom":2.7,"max_zoom":8},"geometry":{"type":"Point","coordinates":[-14.7786,15.1381]}},
{"type":"Feature","properties":{"name":"Saudi Arabia","iso":"SA","min_zoom":1.7,"max_zoom":7},"geometry":{"type":"Point","coordinates":[44.6996,23.8069]}},
{"type":"Feature","properties":{"name":"São Tomé and Principe","iso":"ST","min_zoom":5,"max_zoom":10},"geometry":{"type":"Point","coordinates":[7.021,0.9709]}},
{"type":"Feature","properties":{"name":"San Marino","iso":"SM","min_zoom":5,"max_zoom":10},"geometry":{"type":"Point","coordinates":[12.4412,43.9339]}},
{"type":"Feature","properties":{"name":"Samoa","iso":"WS","min_zoom":3,"max_zoom":8},"geometry":{"type":"Point","coordinates":[-172.4382,-13.6391]}},
{"type":"Feature","properties":{"name":"St. Vin. and Gren.","iso":"VC","min_zoom":5,"max_zoom":10},"geometry":{"type":"Point","coordinates":[-61.3359,13.0879]}},
{"type":"Feature","properties":{"name":"Saint Lucia","iso":"LC","min_zoom":5,"max_zoom":9.5},"geometry":{"type":"Point","coordinates":[-60.9801,13.8924]}},
{"type":"Feature","properties":{"name":"St. Kitts and Nevis","iso":"KN","min_zoom":5,"max_zoom":10},"geometry":{"type":"Point","coordinates":[-62.758,17.3366]}},
{"type":"Feature","properties":{"name":"Rwanda","iso":"RW","min_zoom":3,"max_zoom":8},"geometry":{"type":"Point","coordinates":[30.1039,-1.8972]}},
{"type":"Feature","properties":{"name":"Russia","iso":"RU","min_zoom":1.7,"max_zoom":5.2},"geometry":{"type":"Point","coordinates":[44.6865,58.2494]}},
{"type":"Feature","properties":{"name":"Romania","iso":"RO","min_zoom":3,"max_zoom":8},"geometry":{"type":"Point","coordinates":[24.9726,45.7332]}},
{"type":"Feature","properties":{"name":"Qatar","iso":"QA","min_zoom":4,"max_zoom":9},"geometry":{"type":"Point","coordinates":[51.1435,25.2374]}},
{"type":"Feature","properties":{"name":"Portugal","iso":"PT","min_zoom":3,"max_zoom":8},"geometry":{"type":"Point","coordinates":[-8.2718,39.6067]}},
{"type":"Feature","properties":{"name":"Poland","iso":"PL","min_zoom":2.5,"max_zoom":7},"geometry":{"type":"Point","coordinates":[19.4905,51.9903]}},
{"type":"Feature","properties":{"name":"Philippines","iso":"PH","min_zoom":2.5,"max_zoom":7},"geometry":{"type":"Point","coordinates":[122.465,11.198]}},
{"type":"Feature","properties":{"name":"Peru","iso":"PE","min_zoom":2,"max_zoom":7},"geometry":{"type":"Point","coordinates":[-72.9002,-12.9767]}},
{"type":"Feature","properties":{"name":"Paraguay","iso":"PY","min_zoom":3,"max_zoom":8},"geometry":{"type":"Point","coordinates":[-60.1464,-21.6745]}},
{"type":"Feature","properties":{"name":"Papua New Guinea","iso":"PG","min_zoom":2.5,"max_zoom":7.5},"geometry":{"type":"Point","coordinates":[143.9102,-5.6953]}},
{"type":"Feature","properties":{"name":"Panama","iso":"PA","min_zoom":4,"max_zoom":9},"geometry":{"type":"Point","coordinates":[-80.3521,8.722]}},
{"type":"Feature","properties":{"name":"Palau","iso":"PW","min_zoom":5,"max_zoom":10},"geometry":{"type":"Point","coordinates":[134.5802,7.5183]}},
{"type":"Feature","properties":{"name":"Pakistan","iso":"PK","min_zoom":2.7,"max_zoom":7},"geometry":{"type":"Point","coordinates":[68.5456,29.3284]}},
{"type":"Feature","properties":{"name":"Oman","iso":"OM","min_zoom":4,"max_zoom":9},"geometry":{"type":"Point","coordinates":[57.3366,22.1204]}},
{"type":"Feature","properties":{"name":"Norway","iso":"NO","min_zoom":3,"max_zoom":7},"geometry":{"type":"Point","coordinates":[9.68,61.3571]}},
{"type":"Feature","properties":{"name":"North Korea","iso":"KP","min_zoom":3,"max_zoom":8},"geometry":{"type":"Point","coordinates":[126.4445,39.8853]}},
{"type":"Feature","properties":{"name":"Nigeria","iso":"NG","min_zoom":1.7,"max_zoom":6.7},"geometry":{"type":"Point","coordinates":[7.5032,9.4398]}},
{"type":"Feature","properties":{"name":"Niger","iso":"NE","min_zoom":3,"max_zoom":8},"geometry":{"type":"Point","coordinates":[9.5044,17.4462]}},
{"type":"Feature","properties":{"name":"Nicaragua","iso":"NI","min_zoom":4,"max_zoom":9},"geometry":{"type":"Point","coordinates":[-85.0693,12.6707]}},
{"type":"Feature","properties":{"name":"New Zealand","iso":"NZ","min_zoom":2,"max_zoom":6.7},"geometry":{"type":"Point","coordinates":[172.787,-39.759]}},
{"type":"Feature","properties":{"name":"Niue","iso":"NU","min_zoom":4,"max_zoom":9},"geometry":{"type":"Point","coordinates":[-169.8626,-19.046]}},
{"type":"Feature","properties":{"name":"Cook Is.","iso":"CK","min_zoom":4,"max_zoom":9},"geometry":{"type":"Point","coordinates":[-159.7857,-21.216]}},
{"type":"Feature","properties":{"name":"Netherlands","iso":"NL","min_zoom":4,"max_zoom":10},"geometry":{"type":"Point","coordinates":[5.6114,52.4222]}},
{"type":"Feature","properties":{"name":"Aruba","iso":"AW","min_zoom":5,"max_zoom":10},"geometry":{"type":"Point","coordinates":[-69.9728,12.5174]}},
{"type":"Feature","properties":{"name":"Curaçao","iso":"CW","min_zoom":5,"max_zoom":10},"geometry":{"type":"Point","coordinates":[-68.9206,12.145]}},
{"type":"Feature","properties":{"name":"Nepal","iso":"NP","min_zoom":3,"max_zoom":8},"geometry":{"type":"Point","coordinates":[83.6399,28.2979]}},
{"type":"Feature","properties":{"name":"Nauru","iso":"NR","min_zoom":5,"max_zoom":10},"geometry":{"type":"Point","coordinates":[166.9326,-0.5203]}},
{"type":"Feature","properties":{"name":"Namibia","iso":"NA","min_zoom":3,"max_zoom":7.5},"geometry":{"type":"Point","coordinates":[17.1082,-20.5753]}},
{"type":"Feature","properties":{"name":"Mozambique","iso":"MZ","min_zoom":3,"max_zoom":8},"geometry":{"type":"Point","coordinates":[37.8379,-13.9432]}},
{"type":"Feature","properties":{"name":"Morocco","iso":"MA","min_zoom":2.7,"max_zoom":8},"geometry":{"type":"Point","coordinates":[-7.1873,31.6507]}},
{"type":"Feature","properties":{"name":"W. Sahara","iso":"EH","min_zoom":6,"max_zoom":11},"geometry":{"type":"Point","coordinates":[-12.6303,23.9676]}},
{"type":"Feature","properties":{"name":"Montenegro","iso":"ME","min_zoom":5,"max_zoom":10},"geometry":{"type":"Point","coordinates":[19.1437,42.8031]}},
{"type":"Feature","properties":{"name":"Mongolia","iso":"MN","min_zoom":3,"max_zoom":7},"geometry":{"type":"Point","coordinates":[104.1504,45.9975]}},
{"type":"Feature","properties":{"name":"Moldova","iso":"MD","min_zoom":5,"max_zoom":10},"geometry":{"type":"Point","coordinates":[28.4879,47.435]}},
{"type":"Feature","properties":{"name":"Monaco","iso":"MC","min_zoom":5,"max_zoom":10},"geometry":{"type":"Point","coordinates":[7.3983,43.7397]}},
{"type":"Feature","properties":{"name":"Mexico","iso":"MX","min_zoom":2,"max_zoom":6.7},"geometry":{"type":"Point","coordinates":[-102.2894,23.92]}},
{"type":"Feature","properties":{"name":"Mauritius","iso":"MU","min_zoom":4,"max_zoom":9},"geometry":{"type":"Point","coordinates":[57.5658,-20.2995]}},
{"type":"Feature","properties":{"name":"Mauritania","iso":"MR","min_zoom":3,"max_zoom":8},"geometry":{"type":"Point","coordinates":[-9.7403,19.5871]}},
{"type":"Feature","properties":{"name":"Malta","iso":"MT","min_zoom":4,"max_zoom":9},"geometry":{"type":"Point","coordinates":[14.433,35.8929]}},
{"type":"Feature","properties":{"name":"Mali","iso":"ML","min_zoom":3,"max_zoom":7},"geometry":{"type":"Point","coordinates":[-2.0385,18.6927]}},
{"type":"Feature","properties":{"name":"Maldives","iso":"MV","min_zoom":4,"max_zoom":9},"geometry":{"type":"Point","coordinates":[73.5076,4.1744]}},
{"type":"Feature","properties":{"name":"Malaysia","iso":"MY","min_zoom":3,"max_zoom":8},"geometry":{"type":"Point","coordinates":[113.8371,2.5287]}},
{"type":"Feature","properties":{"name":"Malawi","iso":"MW","min_zoom":4,"max_zoom":9},"geometry":{"type":"Point","coordinates":[33.6081,-13.3867]}},
{"type":"Feature","properties":{"name":"Madagascar","iso":"MG","min_zoom":2.7,"max_zoom":7},"geometry":{"type":"Point","coordinates":[46.7042,-18.6283]}},
{"type":"Feature","properties":{"name":"North Macedonia","iso":"MK","min_zoom":5,"max_zoom":10},"geometry":{"type":"Point","coordinates":[21.5558,41.5582]}},
{"type":"Feature","properties":{"name":"Luxembourg","iso":"LU","min_zoom":5.7,"max_zoom":10},"geometry":{"type":"Point","coordinates":[6.0776,49.7337]}},
{"type":"Feature","properties":{"name":"Lithuania","iso":"LT","min_zoom":4,"max_zoom":9},"geometry":{"type":"Point","coordinates":[24.0899,55.1037]}},
{"type":"Feature","properties":{"name":"Liechtenstein","iso":"LI","min_zoom":5,"max_zoom":10},"geometry":{"type":"Point","coordinates":[9.5594,47.1114]}},
{"type":"Feature","properties":{"name":"Libya","iso":"LY","min_zoom":3,"max_zoom":8},"geometry":{"type":"Point","coordinates":[18.011,26.6389]}},
{"type":"Feature","properties":{"name":"Liberia","iso":"LR","min_zoom":4,"max_zoom":9},"geometry":{"type":"Point","coordinates":[-9.4604,6.4472]}},
{"type":"Feature","properties":{"name":"Lesotho","iso":"LS","min_zoom":4,"max_zoom":9},"geometry":{"type":"Point","coordinates":[28.2466,-29.4802]}},
{"type":"Feature","properties":{"name":"Lebanon","iso":"LB","min_zoom":4,"max_zoom":9},"geometry":{"type":"Point","coordinates":[35.9929,34.1334]}},
{"type":"Feature","properties":{"name":"Latvia","iso":"LV","min_zoom":4,"max_zoom":9},"geometry":{"type":"Point","coordinates":[25.4587,57.0669]}},
{"type":"Feature","properties":{"name":"Laos","iso":"LA","min_zoom":4,"max_zoom":9},"geometry":{"type":"Point","coordinates":[102.5339,19.4318]}},
{"type":"Feature","properties":{"name":"Kyrgyzstan","iso":"KG","min_zoom":3,"max_zoom":8},"geometry":{"type":"Point","coordinates":[74.5326,41.6685]}},
{"type":"Feature","properties":{"name":"Kuwait","iso":"KW","min_zoom":5,"max_zoom":10},"geometry":{"type":"Point","coordinates":[47.314,29.4136]}},
{"type":"Feature","properties":{"name":"Kosovo","iso":"XK","min_zoom":5,"max_zoom":10},"geometry":{"type":"Point","coordinates":[20.8607,42.5936]}},
{"type":"Feature","properties":{"name":"Kiribati","iso":"KI","min_zoom":5,"max_zoom":10},"geometry":{"type":"Point","coordinates":[-157.3846,1.8204]}},
{"type":"Feature","properties":{"name":"Kenya","iso":"KE","min_zoom":1.7,"max_zoom":6.7},"geometry":{"type":"Point","coordinates":[37.9076,0.549]}},
{"type":"Feature","properties":{"name":"Kazakhstan","iso":"KZ","min_zoom":2.7,"max_zoom":7},"geometry":{"type":"Point","coordinates":[68.6855,49.0541]}},
{"type":"Feature","properties":{"name":"Jordan","iso":"JO","min_zoom":4,"max_zoom":9},"geometry":{"type":"Point","coordinates":[36.376,30.805]}},
{"type":"Feature","properties":{"name":"Japan","iso":"JP","min_zoom":1.7,"max_zoom":7},"geometry":{"type":"Point","coordinates":[138.4422,36.1425]}},
{"type":"Feature","properties":{"name":"Jamaica","iso":"JM","min_zoom":4,"max_zoom":9},"geometry":{"type":"Point","coordinates":[-77.3188,18.1371]}},
{"type":"Feature","properties":{"name":"Italy","iso":"IT","min_zoom":2,"max_zoom":7},"geometry":{"type":"Point","coordinates":[11.0769,44.7325]}},
{"type":"Feature","properties":{"name":"Israel","iso":"IL","min_zoom":3,"max_zoom":8},"geometry":{"type":"Point","coordinates":[34.8479,30.9111]}},
{"type":"Feature","properties":{"name":"Palestine","iso":"PS","min_zoom":4.5,"max_zoom":9.5},"geometry":{"type":"Point","coordinates":[35.2913,32.0474]}},
{"type":"Feature","properties":{"name":"Ireland","iso":"IE","min_zoom":3,"max_zoom":8},"geometry":{"type":"Point","coordinates":[-7.7986,53.0787]}},
{"type":"Feature","properties":{"name":"Iraq","iso":"IQ","min_zoom":3,"max_zoom":7.5},"geometry":{"type":"Point","coordinates":[43.2618,33.094]}},
{"type":"Feature","properties":{"name":"Iran","iso":"IR","min_zoom":2.5,"max_zoom":6.7},"geometry":{"type":"Point","coordinates":[54.9315,32.1662]}},
{"type":"Feature","properties":{"name":"Indonesia","iso":"ID","min_zoom":1.7,"max_zoom":6.7},"geometry":{"type":"Point","coordinates":[101.8929,-0.9544]}},
{"type":"Feature","properties":{"name":"India","iso":"IN","min_zoom":1.7,"max_zoom":6.7},"geometry":{"type":"Point","coordinates":[79.3581,22.6869]}},
{"type":"Feature","properties":{"name":"Iceland","iso":"IS","min_zoom":2,"max_zoom":7},"geometry":{"type":"Point","coordinates":[-18.6737,64.7793]}},
{"type":"Feature","properties":{"name":"Hungary","iso":"HU","min_zoom":4,"max_zoom":9},"geometry":{"type":"Point","coordinates":[19.4479,47.0868]}},
{"type":"Feature","properties":{"name":"Honduras","iso":"HN","min_zoom":4.5,"max_zoom":9.5},"geometry":{"type":"Point","coordinates":[-86.8876,14.7948]}},
{"type":"Feature","properties":{"name":"Haiti","iso":"HT","min_zoom":4,"max_zoom":9},"geometry":{"type":"Point","coordinates":[-72.2241,19.2638]}},
{"type":"Feature","properties":{"name":"Guyana","iso":"GY","min_zoom":4,"max_zoom":9},"geometry":{"type":"Point","coordinates":[-58.9426,5.1243]}},
{"type":"Feature","properties":{"name":"Guinea-Bissau","iso":"GW","min_zoom":5,"max_zoom":10},"geometry":{"type":"Point","coordinates":[-14.5241,12.1637]}},
{"type":"Feature","properties":{"name":"Guinea","iso":"GN","min_zoom":3,"max_zoom":8},"geometry":{"type":"Point","coordinates":[-10.0164,10.6185]}},
{"type":"Feature","properties":{"name":"Guatemala","iso":"GT","min_zoom":3,"max_zoom":8},"geometry":{"type":"Point","coordinates":[-90.4971,14.9821]}},
{"type":"Feature","properties":{"name":"Grenada","iso":"GD","min_zoom":4,"max_zoom":9},"geometry":{"type":"Point","coordinates":[-61.6805,12.1132]}},
{"type":"Feature","properties":{"name":"Greece","iso":"GR","min_zoom":2.7,"max_zoom":8},"geometry":{"type":"Point","coordinates":[21.7257,39.4928]}},
{"type":"Feature","properties":{"name":"Ghana","iso":"GH","min_zoom":2.7,"max_zoom":8},"geometry":{"type":"Point","coordinates":[-1.0369,7.7176]}},
{"type":"Feature","properties":{"name":"Germany","iso":"DE","min_zoom":1.7,"max_zoom":6.7},"geometry":{"type":"Point","coordinates":[9.6783,50.9617]}},
{"type":"Feature","properties":{"name":"Georgia","iso":"GE","min_zoom":4,"max_zoom":9},"geometry":{"type":"Point","coordinates":[43.7357,41.8701]}},
{"type":"Feature","properties":{"name":"Gambia","iso":"GM","min_zoom":5,"max_zoom":10},"geometry":{"type":"Point","coordinates":[-14.9983,13.6417]}},
{"type":"Feature","properties":{"name":"Gabon","iso":"GA","min_zoom":3,"max_zoom":8},"geometry":{"type":"Point","coordinates":[11.8359,-0.4377]}},
{"type":"Feature","properties":{"name":"France","iso":"FR","min_zoom":1.7,"max_zoom":6.7},"geometry":{"type":"Point","coordinates":[2.5523,46.6961]}},
{"type":"Feature","properties":{"name":"St. Pierre and Miquelon","iso":"PM","min_zoom":5,"max_zoom":10},"geometry":{"type":"Point","coordinates":[-56.3324,47.0403]}},
{"type":"Feature","properties":{"name":"Wallis and Futuna Is.","iso":"WF","min_zoom":4.7,"max_zoom":9},"geometry":{"type":"Point","coordinates":[-178.1374,-14.2864]}},
{"type":"Feature","properties":{"name":"St-Martin","iso":"MF","min_zoom":5,"max_zoom":10},"geometry":{"type":"Point","coordinates":[-63.0494,18.0813]}},
{"type":"Feature","properties":{"name":"St-Barthélemy","iso":"BL","min_zoom":5.7,"max_zoom":10},"geometry":{"type":"Point","coordinates":[-62.8332,17.902]}},
{"type":"Feature","properties":{"name":"Fr. Polynesia","iso":"PF","min_zoom":3.5,"max_zoom":8.5},"geometry":{"type":"Point","coordinates":[-149.4616,-17.6281]}},
{"type":"Feature","properties":{"name":"New Caledonia","iso":"NC","min_zoom":4.6,"max_zoom":8},"geometry":{"type":"Point","coordinates":[165.084,-21.0647]}},
{"type":"Feature","properties":{"name":"Fr. S. Antarctic Lands","iso":"TF","min_zoom":4,"max_zoom":9},"geometry":{"type":"Point","coordinates":[69.1221,-49.3037]}},
{"type":"Feature","properties":{"name":"Åland","iso":"AX","min_zoom":5,"max_zoom":10},"geometry":{"type":"Point","coordinates":[19.8697,60.1565]}},
{"type":"Feature","properties":{"name":"Finland","iso":"FI","min_zoom":3,"max_zoom":8},"geometry":{"type":"Point","coordinates":[27.2764,63.2524]}},
{"type":"Feature","properties":{"name":"Fiji","iso":"FJ","min_zoom":3,"max_zoom":8},"geometry":{"type":"Point","coordinates":[177.9754,-17.8261]}},
{"type":"Feature","properties":{"name":"Ethiopia","iso":"ET","min_zoom":2,"max_zoom":7},"geometry":{"type":"Point","coordinates":[39.0886,8.0328]}},
{"type":"Feature","properties":{"name":"Estonia","iso":"EE","min_zoom":3,"max_zoom":8},"geometry":{"type":"Point","coordinates":[25.8671,58.7249]}},
{"type":"Feature","properties":{"name":"Eritrea","iso":"ER","min_zoom":4,"max_zoom":9},"geometry":{"type":"Point","coordinates":[38.2856,15.7874]}},
{"type":"Feature","properties":{"name":"Eq. Guinea","iso":"GQ","min_zoom":4,"max_zoom":9},"geometry":{"type":"Point","coordinates":[8.9902,2.333]}},
{"type":"Feature","properties":{"name":"El Salvador","iso":"SV","min_zoom":5,"max_zoom":10},"geometry":{"type":"Point","coordinates":[-88.8901,13.6854]}},
{"type":"Feature","properties":{"name":"Egypt","iso":"EG","min_zoom":1.7,"max_zoom":6.7},"geometry":{"type":"Point","coordinates":[29.4458,26.1862]}},
{"type":"Feature","properties":{"name":"Ecuador","iso":"EC","min_zoom":3,"max_zoom":8},"geometry":{"type":"Point","coordinates":[-78.1884,-1.2591]}},
{"type":"Feature","properties":{"name":"Dominican Rep.","iso":"DO","min_zoom":4.5,"max_zoom":9.5},"geometry":{"type":"Point","coordinates":[-70.654,19.1041]}},
{"type":"Feature","properties":{"name":"Dominica","iso":"DM","min_zoom":4,"max_zoom":9},"geometry":{"type":"Point","coordinates":[-61.345,15.4588]}},
{"type":"Feature","properties":{"name":"Djibouti","iso":"DJ","min_zoom":4,"max_zoom":9},"geometry":{"type":"Point","coordinates":[42.4988,11.9763]}},
{"type":"Feature","properties":{"name":"Greenland","iso":"GL","min_zoom":1.7,"max_zoom":6.7},"geometry":{"type":"Point","coordinates":[-39.3353,74.3194]}},
{"type":"Feature","properties":{"name":"Faeroe Is.","iso":"FO","min_zoom":4,"max_zoom":9},"geometry":{"type":"Point","coordinates":[-7.0584,62.1856]}},
{"type":"Feature","properties":{"name":"Denmark","iso":"DK","min_zoom":3,"max_zoom":8},"geometry":{"type":"Point","coordinates":[9.0182,55.967]}},
{"type":"Feature","properties":{"name":"Czechia","iso":"CZ","min_zoom":4,"max_zoom":9},"geometry":{"type":"Point","coordinates":[15.3776,49.8824]}},
{"type":"Feature","properties":{"name":"N. Cyprus","iso":null,"min_zoom":6,"max_zoom":10},"geometry":{"type":"Point","coordinates":[33.6924,35.2161]}},
{"type":"Feature","properties":{"name":"Cyprus","iso":"CY","min_zoom":4.5,"max_zoom":9.5},"geometry":{"type":"Point","coordinates":[33.0842,34.9133]}},
{"type":"Feature","properties":{"name":"Cuba","iso":"CU","min_zoom":2.7,"max_zoom":8},"geometry":{"type":"Point","coordinates":[-77.9759,21.334]}},
{"type":"Feature","properties":{"name":"Croatia","iso":"HR","min_zoom":4,"max_zoom":9},"geometry":{"type":"Point","coordinates":[16.3724,45.8058]}},
{"type":"Feature","properties":{"name":"Côte d'Ivoire","iso":"CI","min_zoom":2.5,"max_zoom":8},"geometry":{"type":"Point","coordinates":[-5.5686,7.4914]}},
{"type":"Feature","properties":{"name":"Costa Rica","iso":"CR","min_zoom":2.5,"max_zoom":8},"geometry":{"type":"Point","coordinates":[-84.0779,10.0651]}},
{"type":"Feature","properties":{"name":"Dem. Rep. Congo","iso":"CD","min_zoom":2,"max_zoom":7},"geometry":{"type":"Point","coordinates":[23.4588,-1.8582]}},
{"type":"Feature","properties":{"name":"Congo","iso":"CG","min_zoom":4,"max_zoom":9},"geometry":{"type":"Point","coordinates":[15.9005,0.1423]}},
{"type":"Feature","properties":{"name":"Comoros","iso":"KM","min_zoom":4,"max_zoom":9},"geometry":{"type":"Point","coordinates":[43.3181,-11.7277]}},
{"type":"Feature","properties":{"name":"Colombia","iso":"CO","min_zoom":3,"max_zoom":7},"geometry":{"type":"Point","coordinates":[-73.1743,3.3731]}},
{"type":"Feature","properties":{"name":"China","iso":"CN","min_zoom":1.7,"max_zoom":5.7},"geometry":{"type":"Point","coordinates":[106.3373,32.4982]}},
{"type":"Feature","properties":{"name":"Macao","iso":"MO","min_zoom":4,"max_zoom":9},"geometry":{"type":"Point","coordinates":[113.556,22.1297]}},
{"type":"Feature","properties":{"name":"Hong Kong","iso":"HK","min_zoom":4,"max_zoom":9},"geometry":{"type":"Point","coordinates":[114.0978,22.4488]}},
{"type":"Feature","properties":{"name":"Chile","iso":"CL","min_zoom":1.7,"max_zoom":6.7},"geometry":{"type":"Point","coordinates":[-72.3189,-38.1518]}},
{"type":"Feature","properties":{"name":"Chad","iso":"TD","min_zoom":3,"max_zoom":8},"geometry":{"type":"Point","coordinates":[18.645,15.143]}},
{"type":"Feature","properties":{"name":"Central African Rep.","iso":"CF","min_zoom":4,"max_zoom":9},"geometry":{"type":"Point","coordinates":[20.9069,6.9897]}},
{"type":"Feature","properties":{"name":"Cabo Verde","iso":"CV","min_zoom":4,"max_zoom":9},"geometry":{"type":"Point","coordinates":[-23.6394,15.0748]}},
{"type":"Feature","properties":{"name":"Canada","iso":"CA","min_zoom":1.7,"max_zoom":5.7},"geometry":{"type":"Point","coordinates":[-101.9107,60.3243]}},
{"type":"Feature","properties":{"name":"Cameroon","iso":"CM","min_zoom":3,"max_zoom":8},"geometry":{"type":"Point","coordinates":[12.4735,4.585]}},
{"type":"Feature","properties":{"name":"Cambodia","iso":"KH","min_zoom":3,"max_zoom":8},"geometry":{"type":"Point","coordinates":[104.5049,12.6476]}},
{"type":"Feature","properties":{"name":"Myanmar","iso":"MM","min_zoom":3,"max_zoom":8},"geometry":{"type":"Point","coordinates":[95.8045,21.5739]}},
{"type":"Feature","properties":{"name":"Burundi","iso":"BI","min_zoom":4,"max_zoom":9},"geometry":{"type":"Point","coordinates":[29.9171,-3.3328]}},
{"type":"Feature","properties":{"name":"Burkina Faso","iso":"BF","min_zoom":3,"max_zoom":8},"geometry":{"type":"Point","coordinates":[-1.3639,12.673]}},
{"type":"Feature","properties":{"name":"Bulgaria","iso":"BG","min_zoom":4,"max_zoom":9},"geometry":{"type":"Point","coordinates":[25.1571,42.5088]}},
{"type":"Feature","properties":{"name":"Brunei","iso":"BN","min_zoom":4,"max_zoom":9},"geometry":{"type":"Point","coordinates":[114.5519,4.4483]}},
{"type":"Feature","properties":{"name":"Brazil","iso":"BR","min_zoom":1.7,"max_zoom":5.7},"geometry":{"type":"Point","coordinates":[-49.5594,-12.0987]}},
{"type":"Feature","properties":{"name":"Botswana","iso":"BW","min_zoom":4,"max_zoom":9},"geometry":{"type":"Point","coordinates":[24.1792,-22.1026]}},
{"type":"Feature","properties":{"name":"Bosnia and Herz.","iso":"BA","min_zoom":4.5,"max_zoom":6.8},"geometry":{"type":"Point","coordinates":[18.0684,44.0911]}},
{"type":"Feature","properties":{"name":"Bolivia","iso":"BO","min_zoom":3,"max_zoom":7.5},"geometry":{"type":"Point","coordinates":[-64.5934,-16.666]}},
{"type":"Feature","properties":{"name":"Bhutan","iso":"BT","min_zoom":4,"max_zoom":9},"geometry":{"type":"Point","coordinates":[90.0403,27.5367]}},
{"type":"Feature","properties":{"name":"Benin","iso":"BJ","min_zoom":4,"max_zoom":9},"geometry":{"type":"Point","coordinates":[2.352,10.3248]}},
{"type":"Feature","properties":{"name":"Belize","iso":"BZ","min_zoom":5,"max_zoom":10},"geometry":{"type":"Point","coordinates":[-88.713,17.2021]}},
{"type":"Feature","properties":{"name":"Belgium","iso":"BE","min_zoom":4,"max_zoom":9},"geometry":{"type":"Point","coordinates":[4.8004,50.7854]}},
{"type":"Feature","properties":{"name":"Belarus","iso":"BY","min_zoom":3,"max_zoom":8},"geometry":{"type":"Point","coordinates":[28.4177,53.8219]}},
{"type":"Feature","properties":{"name":"Barbados","iso":"BB","min_zoom":4.5,"max_zoom":9.5},"geometry":{"type":"Point","coordinates":[-59.569,13.1637]}},
{"type":"Feature","properties":{"name":"Bangladesh","iso":"BD","min_zoom":3,"max_zoom":8},"geometry":{"type":"Point","coordinates":[89.685,24.215]}},
{"type":"Feature","properties":{"name":"Bahrain","iso":"BH","min_zoom":4,"max_zoom":9},"geometry":{"type":"Point","coordinates":[50.5548,26.056]}},
{"type":"Feature","properties":{"name":"Bahamas","iso":"BS","min_zoom":4,"max_zoom":9},"geometry":{"type":"Point","coordinates":[-77.1467,26.4018]}},
{"type":"Feature","properties":{"name":"Azerbaijan","iso":"AZ","min_zoom":4,"max_zoom":9},"geometry":{"type":"Point","coordinates":[47.211,40.4024]}},
{"type":"Feature","properties":{"name":"Austria","iso":"AT","min_zoom":3,"max_zoom":8},"geometry":{"type":"Point","coordinates":[14.1305,47.5189]}},
{"type":"Feature","properties":{"name":"Australia","iso":"AU","min_zoom":1.7,"max_zoom":5.7},"geometry":{"type":"Point","coordinates":[134.0497,-24.1295]}},
{"type":"Feature","properties":{"name":"Indian Ocean Ter.","iso":"AU","min_zoom":5,"max_zoom":9.5},"geometry":{"type":"Point","coordinates":[105.6726,-10.4908]}},
{"type":"Feature","properties":{"name":"Heard I. and McDonald Is.","iso":"HM","min_zoom":4.5,"max_zoom":9.5},"geometry":{"type":"Point","coordinates":[73.5052,-53.1035]}},
{"type":"Feature","properties":{"name":"Norfolk Island","iso":"NF","min_zoom":4.5,"max_zoom":9.5},"geometry":{"type":"Point","coordinates":[167.9545,-29.033]}},
{"type":"Feature","properties":{"name":"Ashmore and Cartier Is.","iso":"AU","min_zoom":4.5,"max_zoom":9.5},"geometry":{"type":"Point","coordinates":[123.5864,-12.4326]}},
{"type":"Feature","properties":{"name":"Armenia","iso":"AM","min_zoom":5,"max_zoom":10},"geometry":{"type":"Point","coordinates":[44.8006,40.4591]}},
{"type":"Feature","properties":{"name":"Argentina","iso":"AR","min_zoom":2,"max_zoom":7},"geometry":{"type":"Point","coordinates":[-64.1733,-33.5012]}},
{"type":"Feature","properties":{"name":"Antigua and Barb.","iso":"AG","min_zoom":5,"max_zoom":9.5},"geometry":{"type":"Point","coordinates":[-61.7906,17.3522]}},
{"type":"Feature","properties":{"name":"Angola","iso":"AO","min_zoom":3,"max_zoom":7},"geometry":{"type":"Point","coordinates":[17.9842,-12.1828]}},
{"type":"Feature","properties":{"name":"Andorra","iso":"AD","min_zoom":5,"max_zoom":10},"geometry":{"type":"Point","coordinates":[1.5394,42.5476]}},
{"type":"Feature","properties":{"name":"Algeria","iso":"DZ","min_zoom":2.5,"max_zoom":7},"geometry":{"type":"Point","coordinates":[2.8082,27.3974]}},
{"type":"Feature","properties":{"name":"Albania","iso":"AL","min_zoom":5,"max_zoom":10},"geometry":{"type":"Point","coordinates":[20.1138,40.6549]}},
{"type":"Feature","properties":{"name":"Afghanistan","iso":"AF","min_zoom":3,"max_zoom":7},"geometry":{"type":"Point","coordinates":[66.4966,34.1643]}},
{"type":"Feature","properties":{"name":"Siachen Glacier","iso":null,"min_zoom":6.5,"max_zoom":9.5},"geometry":{"type":"Point","coordinates":[77.1296,35.3406]}},
{"type":"Feature","properties":{"name":"Antarctica","iso":"AQ","min_zoom":4,"max_zoom":9},"geometry":{"type":"Point","coordinates":[35.8855,-79.8432]}},
{"type":"Feature","properties":{"name":"Sint Maarten","iso":"SX","min_zoom":5,"max_zoom":10},"geometry":{"type":"Point","coordinates":[-63.0701,18.0409]}},
{"type":"Feature","properties":{"name":"Tuvalu","iso":"TV","min_zoom":5,"max_zoom":10},"geometry":{"type":"Point","coordinates":[179.2096,-8.5137]}}
]}
